OBJECT_NAME,OBJECT_ID,EPOCH,MEAN_MOTION,ECCENTRICITY,INCLINATION,RA_OF_ASC_NODE,ARG_OF_PERICENTER,MEAN_ANOMALY,EPHEMERIS_TYPE,CLASSIFICATION_TYPE,NORAD_CAT_ID,ELEMENT_SET_NO,REV_AT_EPOCH,BSTAR,MEAN_MOTION_DOT,MEAN_MOTION_DDOT
LEMUR-2-ALISIA,2025-009DB,2026-07-22T22:51:35.057376,15.03257350,.0005019,97.6959,285.8903,109.3462,250.8306,0,U,62706,999,10553,.63600695E-3,.8562E-4,0
LEMUR-2-ROUNDTRIPPER,2025-009DG,2026-07-23T03:38:32.887392,15.04318028,.00042861,97.7239,286.7903,48.3858,311.7734,0,U,62711,999,8303,.56466791E-3,.7811E-4,0
LEMUR-2-MYNAMEISJEFF,2025-009DH,2026-07-22T22:49:04.774944,15.04309970,.00042798,97.7284,286.9921,81.9127,278.2584,0,U,62712,999,8300,.65169231E-3,.9024E-4,0
LEMUR-2-LEIA-PHILIP,2025-052AN,2026-07-23T03:43:59.873376,14.97399507,.00051082,97.6784,95.4948,103.2748,256.9044,0,U,63246,999,7405,.84897625E-4,.929E-5,0
LEMUR-2-LIA-MARTIN,2025-052AQ,2026-07-23T03:31:10.167744,14.98066177,.00046398,97.6843,96.0188,70.2989,289.8734,0,U,63248,999,7406,.2996582E-3,.3487E-4,0
LEMUR-2-DELOITTE-1,2025-052BB,2026-07-22T22:16:16.806720,14.97828481,.00025168,97.6886,96.1336,54.3603,305.7853,0,U,63259,999,7404,.33409558E-3,.387E-4,0
LEMUR-2-EMERSONROSE,2025-052BD,2026-07-23T03:13:48.474048,14.99336545,.00022045,97.6884,96.9686,40.2656,319.8730,0,U,63261,999,7412,.29084977E-3,.3496E-4,0
LEMUR-2-MARACHE-FRAN,2025-052BE,2026-07-22T16:26:29.554656,15.00352389,.00061158,97.6810,96.8982,223.0553,137.0193,0,U,63262,999,7408,.31877406E-3,.3943E-4,0
LEMUR-2-THEFALCONER,2025-052BG,2026-07-23T03:50:28.826304,14.97592836,.00010603,97.6806,95.9434,198.3787,161.7397,0,U,63264,999,7407,.27694659E-3,.3178E-4,0
LEMUR-2-UNTITLED-SC,2025-061A,2026-07-22T22:05:25.511424,15.13683344,.00199339,97.5660,179.0313,137.6189,222.6586,0,U,63351,999,7299,.18451061E-3,.3268E-4,0
LEMUR-2-ESPERANZA,2025-061B,2026-07-22T21:29:07.683648,15.13788423,.00195564,97.5667,179.1083,137.0188,223.2575,0,U,63352,999,7299,.19479E-3,.3464E-4,0
LEMUR-2-KREMPEL-BRO2,2025-061C,2026-07-23T05:49:06.816864,15.14219535,.00206635,97.5714,180.0325,128.9573,231.3504,0,U,63353,999,7306,.18893865E-3,.3401E-4,0
LEMUR-2-THERMORAPTOR,2025-061D,2026-07-22T21:24:42.843456,15.14300300,.00203749,97.5719,179.7666,129.0530,231.2519,0,U,63354,999,7301,.21164138E-3,.3826E-4,0
LEMUR-2-NEUROSPICY,2025-061E,2026-07-22T22:15:05.609664,15.14419013,.00182162,97.5645,179.4000,131.8778,228.4012,0,U,63355,999,7302,.19179429E-3,.3469E-4,0
LEMUR-2-TILLINFINITY,2025-061F,2026-07-22T21:10:55.350912,15.15007927,.0019614,97.5632,179.6712,121.1672,239.1486,0,U,63356,999,7304,.25228389E-3,.4666E-4,0
LEMUR-2-KREMPEL-BRO1,2025-061G,2026-07-22T17:29:02.996160,15.14808413,.00202589,97.5632,179.4240,122.9596,237.3587,0,U,63357,999,7301,.1812237E-3,.3314E-4,0
LEMUR-2-LANGER2SPACE,2025-061H,2026-07-22T21:27:47.143296,15.14503456,.00180948,97.5638,179.3885,130.2936,229.9881,0,U,63358,999,7302,.20195941E-3,.3665E-4,0
LEMUR-2-BALTO,2025-052BH,2026-07-23T03:15:49.110048,15.00411739,.00049829,97.6918,97.3434,291.9458,68.1236,0,U,63395,999,7415,.33165661E-3,.411E-4,0
LEMUR-2-KRISH,2025-135AK,2026-07-23T06:01:36.652224,14.96495024,.00012818,97.7759,318.8902,111.7125,248.4232,0,U,64561,999,5931,.42577693E-3,.4779E-4,0
LEMUR-2-HUBBLE-4,2025-135AP,2026-07-23T02:42:39.120192,14.93700722,.00032479,97.7722,317.6059,143.9745,216.1695,0,U,64565,999,5923,.12226375E-3,.1237E-4,0
LEMUR-2-SEJONG-2,2025-135BL,2026-07-23T06:28:17.798880,14.96966207,.00044537,97.7712,319.0542,182.2247,177.8956,0,U,64586,999,5934,.51446288E-3,.5859E-4,0
LEMUR-2-HUBBLE-5,2025-135BT,2026-07-23T04:27:47.391552,14.94228388,.00049685,97.7742,318.3557,203.9370,156.1620,0,U,64840,999,5928,.13842244E-3,.1427E-4,0
LEMUR-2-KARENDARRELL,2025-135BU,2026-07-22T19:09:49.865184,15.00577316,.0013015,97.7721,319.9655,81.7245,278.5453,0,U,64841,999,5935,.63228157E-3,.794E-4,0
LEMUR-2-LUCILLE-ROSE,2025-135BV,2026-07-22T18:31:43.909536,15.00558075,.00155817,97.7688,319.9724,166.4570,193.7074,0,U,65403,999,5397,.60148358E-3,.7551E-4,0
LEMUR-2-AFFIE-WAUWIE,2025-248C,2026-07-23T05:06:26.155008,15.28503726,.00093333,45.3913,279.5994,293.1633,66.8272,0,U,66295,999,4010,.74289393E-3,.20771E-3,0
OTTER SDM,2025-276N,2026-07-23T04:39:36.459072,15.20124446,.00048664,97.4194,277.0787,218.2161,141.8730,0,U,66678,999,3588,.28314695E-3,.6055E-4,0
LEMUR-2-STAS-GORBUK,2025-276W,2026-07-23T03:38:41.930016,15.19715909,.00042498,97.4227,277.0873,212.6305,147.4668,0,U,66686,999,3587,.26035118E-3,.5495E-4,0
LEMUR-2-TEODOR,2025-276DG,2026-07-23T03:53:05.443584,15.21398312,.00020686,97.4134,277.3795,82.7522,277.3949,0,U,66768,999,3591,.25368545E-3,.5623E-4,0
LEMUR-2-LAILA,2025-276DQ,2026-07-23T04:42:35.687232,15.21626275,.00027575,97.4157,277.5570,82.7172,277.4378,0,U,66776,999,3592,.24906829E-3,.5556E-4,0
